0 COSMOS 2251 DEB
1 36616U 93036BEE 13283.63764052  .00020949  00000-0  32953-2 0  1500
2 36616 074.0263 033.6724 0047488 275.1979 084.4266 14.71732936200063
0 COSMOS 2251 DEB
1 36616U 93036BEE 13283.63772476  .00016091  00000-0  25114-2 0  1503
2 36616 073.9878 033.6961 0058686 301.2784 058.4354 14.71704153200062
0 COSMOS 2251 DEB
1 36616U 93036BEE 13288.93954737  .00024243  00000-0  37898-2 0  1514
2 36616 074.0211 023.3596 0045991 264.6369 096.7510 14.72000669200848
0 COSMOS 2251 DEB
1 36616U 93036BEE 13291.95140169  .00026122  00000-0  40600-2 0  1520
2 36616 074.0243 017.4832 0047703 259.4661 216.8053 14.72180654201289
0 COSMOS 2251 DEB
1 36616U 93036BEE 13294.57948687  .00027681  00000-0  42983-2 0  1530
2 36616 074.0169 012.3863 0043882 254.4108 105.2159 14.72327710201665
